EUTELSAT QUANTUM        
1 49056U 21069B   25362.84211603  .00000148  00000+0  00000+0 0  9996
2 49056   0.0105 346.2969 0003474 299.4029 162.7159  1.00269824 16228
EUTELSAT KONNECT VHTS   
1 53765U 22110A   25362.75491102  .00000039  00000+0  00000+0 0  9999
2 53765   0.0584  98.3585 0002635 155.2555 118.3195  1.00268013  5124
EUTELSAT HOTBIRD 13F    
1 54048U 22134A   25362.75690436  .00000109  00000+0  00000+0 0  9999
2 54048   0.0551 291.2236 0002158  69.9518  21.7639  1.00272655 11663
EUTELSAT HOTBIRD 13G    
1 54225U 22146A   25362.75681771  .00000108  00000+0  00000+0 0  9990
2 54225   0.0531 229.1972 0001385 313.8438 199.8685  1.00262757  5751
EUTELSAT 10B            
1 54259U 22157A   25362.75638436  .00000090  00000+0  00000+0 0  9999
2 54259   0.0590  95.6315 0000803  83.5476 200.6027  1.00268663 11319
EUTELSAT 36D            
1 59346U 24059A   25362.76149772  .00000000  00000+0  00000+0 0  9996
2 59346   0.0228  25.0641 0000956 305.6211  76.8112  1.00269037  6433
